FLOCK 4BE-26
1 60484U 26102.30366898  8.16510-4 1.33000-3 0 0                     
2 60484  97.3701 185.8294 0004850 168.5634 191.5729 15.52344928      
TOMORROW-S2
1 60485U 26102.20850694  5.09700-5 1.68443-4 0 0                     
2 60485  97.3823 183.3616 0004146 131.8112 228.3484 15.31818839      
FLOCK 4BE-36
1 60486U 26102.17151620  1.31550-4 3.24159-4 0 0                     
2 60486  97.3745 185.9150 0004919 138.0450 222.1174 15.40686952      
FLOCK 4BE-25
1 60487U 26102.17842593  1.02720-4 2.84426-4 0 0                     
2 60487  97.3802 184.9678 0003617 128.6215 231.5354 15.37166410      
FLOCK 4BE-31
1 60488U 26102.18652778  1.55900-4 3.71673-4 0 0                     
2 60488  97.3802 186.6229 0003898 137.1222 223.0329 15.41653533      
FLOCK 4BE-20
1 60489U 26102.30363426  1.01750-4 2.88922-4 0 0                     
2 60489  97.3707 184.1400 0005160 135.2785 224.8876 15.36375480      
FLOCK 4BE-23
1 60490U 26102.14795139  1.03790-4 2.98059-4 0 0                     
2 60490  97.3780 184.3231 0004817 141.2263 218.9327 15.36018881      
FLOCK 4BE-15
1 60491U 26102.16479167  7.37520-4 1.46571-3 0 0                     
2 60491  97.3717 185.7681 0005803 207.0889 153.0058 15.46691993      
FLOCK 4BE-17
1 60492U 26102.21740741  1.10640-4 2.98909-4 0 0                     
2 60492  97.3778 185.1629 0004429 131.8633 228.2991 15.37908248      
NUSAT-50 (NANCY ROMAN)
1 60493U 26102.28262731  6.85000-5 2.35643-4 0 0                     
2 60493  97.3783 184.0425 0004440 118.7052 241.4636 15.30386771      
FLOCK 4BE-22
1 60494U 26102.19138889  1.19210-4 3.08648-4 0 0                     
2 60494  97.3737 185.2302 0004816 140.0049 220.1553 15.39198930      
FLOCK 4BE-34
1 60495U 26102.21032407  1.09090-4 2.81832-4 0 0                     
2 60495  97.3782 186.0259 0005052 146.6222 213.5343 15.39289222      
TYCHE
1 60496U 26102.16248843  3.88800-5 1.54790-4 0 0                     
2 60496  97.3767 180.8647 0004620 135.3824 224.7787 15.25830568      
FLOCK 4BE-32
1 60497U 26102.21459491  1.23140-4 3.10380-4 0 0                     
2 60497  97.3725 185.5427 0004960 144.9258 215.2315 15.40012282      
NUSAT-48 (HENRIETTA LEAVITT)
1 60498U 26102.16521991  8.38400-5 2.91155-4 0 0                     
2 60498  97.3900 184.0078 0004940 138.7900 221.3715 15.30004395      
FLOCK 4BE-30
1 60499U 26102.18782407  5.15010-4 1.12709-3 0 0                     
2 60499  97.3798 186.2029 0003739 195.8770 164.2362 15.43964386      
NUSAT-49 (KLARA DAN VON NEUMANN)
1 60500U 26102.21122685  6.34900-5 2.22931-4 0 0                     
2 60500  97.3785 183.9482 0003630 143.9710 216.1776 15.29748550      
FLOCK 4BE-11
1 60501U 26101.79060185  1.60210-4 3.92437-4 0 0                     
2 60501  97.3706 185.2794 0005080 146.0156 214.1417 15.40821060      
YAM-7
1 60504U 26102.19032407  5.07400-5 1.72391-4 0 0                     
2 60504  97.3794 182.7521 0004238 149.2627 210.8863 15.30918125      
FLOCK 4BE-24
1 60505U 26102.16510417  1.54800-4 3.80886-4 0 0                     
2 60505  97.3717 185.9021 0005087 155.0808 205.0685 15.40693029      
LUR-1
1 60506U 26102.17331019  5.17500-5 1.84970-4 0 0                     
2 60506  97.3755 181.5197 0004658 160.1369 200.0053 15.29252934      
TANAGER-1
1 60507U 26101.68885417  1.32070-4 2.91114-4 0 0                     
2 60507  97.3641 195.5128 0007401 175.5863 184.5452 15.44019819      
EAGLEEYE
1 60508U 26102.14802083  4.48590-4 5.23516-4 0 0                     
2 60508  97.3726 192.3728 0003814 151.1565 208.9904 15.61504569      
FLOCK 4BE-29
1 60509U 26101.77375000  1.75220-4 4.12459-4 0 0                     
2 60509  97.3806 186.7605 0003658 158.4854 201.6548 15.42011397      
TRANSPORTER-11 OBJECT AU
1 60510U 26102.20506944  9.88100-5 2.62771-4 0 0                     
2 60510  97.3736 185.4929 0004573 151.5872 208.5623 15.38425869      
FLOCK 4BE-2
1 60511U 26102.18226852  3.24480-4 6.52366-4 0 0                     
2 60511  97.3818 187.9413 0004742 158.7432 201.4016 15.46558689      
FLOCK 4BE-13
1 60512U 26102.11572917  1.21670-4 3.05454-4 0 0                     
2 60512  97.3724 185.9324 0005185 139.5906 220.5726 15.40136314      
FLOCK 4BE-27
1 60513U 26102.17438657  6.44000-5 2.02346-4 0 0                     
2 60513  97.3831 184.0511 0004664 161.2380 198.9035 15.33333100      
FLOCK 4BE-9
1 60514U 26102.19385417  1.15220-4 3.01698-4 0 0                     
2 60514  97.3797 185.9271 0003859 158.0500 202.0911 15.38865458      
FLOCK 4BE-6
1 60516U 26102.17429398  1.07580-4 2.91542-4 0 0                     
2 60516  97.3795 185.3809 0004613 158.2932 201.8509 15.37818929      
FLOCK 4BE-14
1 60517U 26102.21356481  1.17400-4 3.05802-4 0 0                     
2 60517  97.3705 185.5092 0005582 160.6516 199.4942 15.39014327      
FLOCK 4BE-1
1 60518U 26102.22991898  1.28630-4 3.19194-4 0 0                     
2 60518  97.3781 186.5760 0005206 160.7344 199.4100 15.40478001      
FLOCK 4BE-28
1 60519U 26102.21047454  1.35190-4 3.12137-4 0 0                     
2 60519  97.3750 187.0834 0005273 156.9895 203.1589 15.42644109      
IPERDRONE.0
1 60520U 26102.20678241  3.83540-4 4.98004-4 0 0                     
2 60520  97.3778 192.6064 0003789 139.8103 220.3434 15.58724847      
TRANSPORTER-11 OBJECT BF
1 60521U 26102.19244213  6.61010-4 6.36390-4 0 0                     
2 60521  97.3789 194.1376 0003666 149.1596 210.9880 15.66333274      
CONNECTA IOT-2
1 60522U 26102.17903935  3.41000-5 1.46180-4 0 0                     
2 60522  97.3851 181.3503 0006450 182.4088 177.7119 15.23409966      
PTD-R (TYVAK-0127)
1 60523U 26102.23516204  8.51870-4 4.70880-4 0 0                     
2 60523  97.3739 197.5567 0004730 182.0796 178.0453 15.79362425      
CONNECTA IOT-4
1 60524U 26101.96983796  1.46480-4 3.70653-4 0 0                     
2 60524  97.3800 185.6804 0006189 159.9461 200.2030 15.39845421      
ORESAT0.5
1 60525U 26102.19980324  1.38280-4 3.18648-4 0 0                     
2 60525  97.3720 187.3175 0006543 149.0777 211.0857 15.42688540      
DEIMOS
1 60526U 26102.19800926  1.30350-4 3.08072-4 0 0                     
2 60526  97.3778 187.4835 0006450 154.3589 205.7979 15.41943742      
CUAVA-2
1 60527U 26102.19165509  8.22000-5 2.47171-4 0 0                     
2 60527  97.3733 183.6756 0007609 158.7642 201.3918 15.34622842      
ERNST
1 60528U 26102.21068287  9.37700-5 2.56968-4 0 0                     
2 60528  97.3809 185.5252 0006845 161.0454 199.1047 15.37500384      
TORO
1 60530U 26102.16910880  1.69600-5 1.55529-4 0 0                     
2 60530  97.6812 178.0744 0001597 101.3601 258.7800 14.96189407      
HYPSO-2
1 60531U 26102.16593750  2.79700-5 2.38762-4 0 0                     
2 60531  97.6849 179.3972 0002290 115.6896 244.4563 14.98488229      
LEMU NGE
1 60532U 26101.44634259  1.29600-5 1.24652-4 0 0                     
2 60532  97.6864 177.7620 0000888 138.6435 221.4853 14.94688652      
LEMUR-2-STELLA
1 60533U 26102.19276620  6.86600-5 4.21674-4 0 0                     
2 60533  97.6734 184.4362 0000981 134.5744 225.5565 15.10412669      
SATELIOT_2
1 60534U 26102.15348380  1.94200-5 1.77645-4 0 0                     
2 60534  97.6849 178.3192 0001242  88.8233 271.3131 14.96123274      
NIGHTJAR
1 60535U 26102.16611111  3.21700-5 2.72729-4 0 0                     
2 60535  97.6870 179.8034 0002001  86.1224 274.0227 14.98659464      
LEMUR-2-MARHISYAM
1 60536U 26102.21686343  7.07900-5 4.40375-4 0 0                     
2 60536  97.6882 184.8384 0001748  35.6353 324.4993 15.09931429      
SATELIOT_4
1 60537U 26102.17787037  8.23000-6 7.75630-5 0 0                     
2 60537  97.6762 177.9163 0000614 213.9614 146.1569 14.96430829      
PICO-02A021
1 60538U 26102.18697917  2.76200-5 2.11876-4 0 0                     
2 60538  97.6737 181.6213 0003840 230.3539 129.7348 15.02623956      
ICEYE-X43
1 60539U 26102.17469907  2.81600-5 2.33516-4 0 0                     
2 60539  97.6841 180.0385 0001790 355.5286   4.5921 14.99611164      
HAWK-10A
1 60540U 26102.17062500  1.48100-5 1.36083-4 0 0                     
2 60540  97.6915 179.2201 0001909 310.3063  49.7992 14.96314893      
UMBRA-09
1 60541U 26101.84267361  1.17140-4 6.11304-4 0 0                     
2 60541  97.6957 188.0246 0001885 191.5143 168.6047 15.16096245      
QPS-SAR-8 (AMATERU-IV)
1 60542U 26102.25222222  3.12300-5 2.33626-4 0 0                     
2 60542  97.6658 181.9880 0002769 355.0720   5.0478 15.03479058      
ARCTIC WEATHER SATELLITE
1 60543U 26102.13060185  5.58000-6 6.37972-5 0 0                     
2 60543  97.6829 174.4741 0001725  13.9414 346.1851 14.89798779      
CAPELLA-15 (ACADIA-5)
1 60544U 26102.14778935  5.07000-5 5.00217-4 0 0                     
2 60544  97.6795 176.6890 0002511 295.6494  64.4466 14.92413903      
HAWK-10B
1 60545U 26102.17050926  1.37900-5 1.27006-4 0 0                     
2 60545  97.6836 178.6412 0004212 329.1631  30.9342 14.96319574      
ICEYE-X39
1 60546U 26102.15589120  3.39900-5 2.81786-4 0 0                     
2 60546  97.6794 180.0683 0001131 297.7782  62.3326 14.99489750      
UMBRA-10
1 60547U 26102.17222222  1.06440-4 5.55699-4 0 0                     
2 60547  97.6964 188.3810 0001831 154.3622 205.7702 15.16106996      
ICEYE-X33
1 60548U 26102.16931713  3.58700-5 2.81926-4 0 0                     
2 60548  97.7082 181.7514 0004791  30.3990 329.7512 15.01508490      
ICEYE-X40
1 60549U 26102.16581019  2.16900-5 1.89907-4 0 0                     
2 60549  97.6830 179.7278 0002964 312.6319  47.4653 14.97729522      
SATELIOT_1
1 60550U 26102.09431713  2.25600-5 1.97020-4 0 0                     
2 60550  97.6772 179.1000 0004748 303.4395  56.6373 14.97789970      
BRO-14
1 60551U 26102.11635417  7.46000-6 7.14799-5 0 0                     
2 60551  97.6893 179.0807 0005829 330.6511  29.4382 14.96047057      
SATELIOT_3
1 60552U 26102.06973380  1.54000-5 1.36065-4 0 0                     
2 60552  97.6829 179.8067 0004128 310.7594  49.3270 14.97787227      
